{
    "links": {
        "self": "http://www.neowsapp.com/rest/v1/neo/3297375?api_key=iIulBulltgU6a56xZRHN4H3l9WmuAYTsLGpBGhQ2"
    },
    "id": "3297375",
    "neo_reference_id": "3297375",
    "name": "(2005 UQ64)",
    "designation": "2005 UQ64",
    "nasa_jpl_url": "http://ssd.jpl.nasa.gov/sbdb.cgi?sstr=3297375",
    "absolute_magnitude_h": 24.4,
    "estimated_diameter": {
        "kilometers": {
            "estimated_diameter_min": 0.0350392641,
            "estimated_diameter_max": 0.0783501764
        },
        "meters": {
            "estimated_diameter_min": 35.0392641108,
            "estimated_diameter_max": 78.3501764334
        },
        "miles": {
            "estimated_diameter_min": 0.0217723826,
            "estimated_diameter_max": 0.0486845275
        },
        "feet": {
            "estimated_diameter_min": 114.9582192654,
            "estimated_diameter_max": 257.0543928497
        }
    },
    "is_potentially_hazardous_asteroid": false,
    "close_approach_data": [
        {
            "close_approach_date": "1940-08-06",
            "close_approach_date_full": "1940-Aug-06 22:02",
            "epoch_date_close_approach": -927856680000,
            "relative_velocity": {
                "kilometers_per_second": "18.7202821488",
                "kilometers_per_hour": "67393.0157355209",
                "miles_per_hour": "41875.3991385518"
            },
            "miss_distance": {
                "astronomical": "0.4655128557",
                "lunar": "181.0845008673",
                "kilometers": "69639731.670337359",
                "miles": "43272122.7049551942"
            },
            "orbiting_body": "Earth"
        },
        {
            "close_approach_date": "2001-08-17",
            "close_approach_date_full": "2001-Aug-17 18:02",
            "epoch_date_close_approach": 998071320000,
            "relative_velocity": {
                "kilometers_per_second": "14.184709782",
                "kilometers_per_hour": "51064.9552153199",
                "miles_per_hour": "31729.7773114303"
            },
            "miss_distance": {
                "astronomical": "0.3131783939",
                "lunar": "121.8263952271",
                "kilometers": "46850820.657460993",
                "miles": "29111750.0267599834"
            },
            "orbiting_body": "Earth"
        },
        {
            "close_approach_date": "2003-09-06",
            "close_approach_date_full": "2003-Sep-06 02:59",
            "epoch_date_close_approach": 1062817140000,
            "relative_velocity": {
                "kilometers_per_second": "8.0739362524",
                "kilometers_per_hour": "29066.1705084719",
                "miles_per_hour": "18060.5880028891"
            },
            "miss_distance": {
                "astronomical": "0.1187451978",
                "lunar": "46.1918819442",
                "kilometers": "17764028.663608686",
                "miles": "11038055.5701284268"
            },
            "orbiting_body": "Earth"
        },
        {
            "close_approach_date": "2005-10-22",
            "close_approach_date_full": "2005-Oct-22 02:08",
            "epoch_date_close_approach": 1129946880000,
            "relative_velocity": {
                "kilometers_per_second": "6.2123446422",
                "kilometers_per_hour": "22364.440711808",
                "miles_per_hour": "13896.3937300676"
            },
            "miss_distance": {
                "astronomical": "0.0374911244",
                "lunar": "14.5840473916",
                "kilometers": "5608592.354145028",
                "miles": "3485017.6864482664"
            },
            "orbiting_body": "Earth"
        },
        {
            "close_approach_date": "2007-11-17",
            "close_approach_date_full": "2007-Nov-17 13:42",
            "epoch_date_close_approach": 1195306920000,
            "relative_velocity": {
                "kilometers_per_second": "12.889543257",
                "kilometers_per_hour": "46402.3557251273",
                "miles_per_hour": "28832.6193115381"
            },
            "miss_distance": {
                "astronomical": "0.2601070022",
                "lunar": "101.1816238558",
                "kilometers": "38911453.501205314",
                "miles": "24178456.0357447732"
            },
            "orbiting_body": "Earth"
        }
    ],
    "orbital_data": {
        "orbit_id": "8",
        "orbit_determination_date": "2017-04-06 09:10:02",
        "first_observation_date": "2005-10-30",
        "last_observation_date": "2005-11-21",
        "data_arc_in_days": 22,
        "observations_used": 33,
        "orbit_uncertainty": "7",
        "minimum_orbit_intersection": ".0202099",
        "jupiter_tisserand_invariant": "4.265",
        "epoch_osculation": "2459000.5",
        "eccentricity": ".3680543911398267",
        "semi_major_axis": "1.608082763236046",
        "inclination": "5.185972574798276",
        "ascending_node_longitude": "202.3927780918291",
        "orbital_period": "744.8366225207617",
        "perihelion_distance": "1.016220840910753",
        "perihelion_argument": "172.6723745734098",
        "aphelion_distance": "2.19994468556134",
        "perihelion_time": "2458867.782114779132",
        "mean_anomaly": "64.14619962941026",
        "mean_motion": ".483327469561911",
        "equinox": "J2000",
        "orbit_class": {
            "orbit_class_type": "APO",
            "orbit_class_description": "Near-Earth asteroid orbits which cross the Earth’s orbit similar to that of 1862 Apollo",
            "orbit_class_range": "a (semi-major axis) > 1.0 AU; q (perihelion) < 1.017 AU"
        }
    },
    "is_sentry_object": false
}